[{"OBJECT_NAME":"YAM-7","OBJECT_ID":"2024-149AN","EPOCH":"2026-03-09T17:13:55.117920","MEAN_MOTION":15.30304554,"ECCENTRICITY":0.00019733,"INCLINATION":97.3828,"RA_OF_ASC_NODE":149.4631,"ARG_OF_PERICENTER":296.5121,"MEAN_ANOMALY":63.5918,"EPHEMERIS_TYPE":0,"CLASSIFICATION_TYPE":"U","NORAD_CAT_ID":60504,"ELEMENT_SET_NO":999,"REV_AT_EPOCH":8683,"BSTAR":0.00030984439,"MEAN_MOTION_DOT":9.009e-5,"MEAN_MOTION_DDOT":0},{"OBJECT_NAME":"STARLINK-36206","OBJECT_ID":"2025-286F","EPOCH":"2026-03-09T22:55:07.465728","MEAN_MOTION":15.30216763,"ECCENTRICITY":0.00012308,"INCLINATION":53.1588,"RA_OF_ASC_NODE":357.4837,"ARG_OF_PERICENTER":80.3556,"MEAN_ANOMALY":279.7584,"EPHEMERIS_TYPE":0,"CLASSIFICATION_TYPE":"U","NORAD_CAT_ID":66930,"ELEMENT_SET_NO":999,"REV_AT_EPOCH":1544,"BSTAR":0.0010567062,"MEAN_MOTION_DOT":0.00031085,"MEAN_MOTION_DDOT":0}]
